{
    "links": {
        "self": "http://www.neowsapp.com/rest/v1/neo/54041666?api_key=iIulBulltgU6a56xZRHN4H3l9WmuAYTsLGpBGhQ2"
    },
    "id": "54041666",
    "neo_reference_id": "54041666",
    "name": "(2020 NZ)",
    "designation": "2020 NZ",
    "nasa_jpl_url": "http://ssd.jpl.nasa.gov/sbdb.cgi?sstr=54041666",
    "absolute_magnitude_h": 25.31,
    "estimated_diameter": {
        "kilometers": {
            "estimated_diameter_min": 0.0230438467,
            "estimated_diameter_max": 0.0515276076
        },
        "meters": {
            "estimated_diameter_min": 23.0438466577,
            "estimated_diameter_max": 51.5276075896
        },
        "miles": {
            "estimated_diameter_min": 0.014318778,
            "estimated_diameter_max": 0.0320177611
        },
        "feet": {
            "estimated_diameter_min": 75.6031738683,
            "estimated_diameter_max": 169.0538360842
        }
    },
    "is_potentially_hazardous_asteroid": false,
    "close_approach_data": [
        {
            "close_approach_date": "2020-07-28",
            "close_approach_date_full": "2020-Jul-28 00:54",
            "epoch_date_close_approach": 1595897640000,
            "relative_velocity": {
                "kilometers_per_second": "7.7995468345",
                "kilometers_per_hour": "28078.3686043515",
                "miles_per_hour": "17446.8063141872"
            },
            "miss_distance": {
                "astronomical": "0.0211074229",
                "lunar": "8.2107875081",
                "kilometers": "3157625.507029223",
                "miles": "1962057.5082523574"
            },
            "orbiting_body": "Earth"
        }
    ],
    "orbital_data": {
        "orbit_id": "5",
        "orbit_determination_date": "2020-07-28 06:41:16",
        "first_observation_date": "2020-07-13",
        "last_observation_date": "2020-07-27",
        "data_arc_in_days": 14,
        "observations_used": 26,
        "orbit_uncertainty": "8",
        "minimum_orbit_intersection": ".0207197",
        "jupiter_tisserand_invariant": "3.553",
        "epoch_osculation": "2459044.5",
        "eccentricity": ".512275758255062",
        "semi_major_axis": "2.109535578874913",
        "inclination": "6.623134779967975",
        "ascending_node_longitude": "119.6905184062428",
        "orbital_period": "1119.125286250295",
        "perihelion_distance": "1.028871640640736",
        "perihelion_argument": "194.4692078822759",
        "aphelion_distance": "3.190199517109091",
        "perihelion_time": "2459066.406091277521",
        "mean_anomaly": "352.9532529049265",
        "mean_motion": ".3216798015584156",
        "equinox": "J2000",
        "orbit_class": {
            "orbit_class_type": "AMO",
            "orbit_class_description": "Near-Earth asteroid orbits similar to that of 1221 Amor",
            "orbit_class_range": "1.017 AU < q (perihelion) < 1.3 AU"
        }
    },
    "is_sentry_object": false
}